COSMOS 2251 DEB         
1 35673U 93036APQ 17343.21215456  .00003327  00000-0  35031-3 0  9999
2 35673  73.9511 291.6856 0022634 162.4079 262.4649 14.89641654246929
